[{"OBJECT_NAME":"STARLINK-5130","OBJECT_ID":"2022-125AK","EPOCH":"2026-03-09T15:35:47.623200","MEAN_MOTION":15.08837645,"ECCENTRICITY":0.00011771,"INCLINATION":53.2171,"RA_OF_ASC_NODE":204.5277,"ARG_OF_PERICENTER":75.5046,"MEAN_ANOMALY":284.6076,"EPHEMERIS_TYPE":0,"CLASSIFICATION_TYPE":"U","NORAD_CAT_ID":53997,"ELEMENT_SET_NO":999,"REV_AT_EPOCH":18959,"BSTAR":8.4013417e-5,"MEAN_MOTION_DOT":1.049e-5,"MEAN_MOTION_DDOT":0},{"OBJECT_NAME":"CZ-2C DEB","OBJECT_ID":"2011-030F","EPOCH":"2026-03-09T18:15:45.395712","MEAN_MOTION":15.09717889,"ECCENTRICITY":0.00353547,"INCLINATION":98.459,"RA_OF_ASC_NODE":350.9929,"ARG_OF_PERICENTER":109.3287,"MEAN_ANOMALY":305.6279,"EPHEMERIS_TYPE":0,"CLASSIFICATION_TYPE":"U","NORAD_CAT_ID":37735,"ELEMENT_SET_NO":999,"REV_AT_EPOCH":78307,"BSTAR":0.0021378399,"MEAN_MOTION_DOT":0.00035046,"MEAN_MOTION_DDOT":0}]
